[{"OBJECT_NAME":"STARLINK-6135","OBJECT_ID":"2023-065AN","EPOCH":"2026-03-09T11:35:05.970336","MEAN_MOTION":15.02534558,"ECCENTRICITY":0.00017857,"INCLINATION":43.0029,"RA_OF_ASC_NODE":224.4769,"ARG_OF_PERICENTER":279.0446,"MEAN_ANOMALY":81.0195,"EPHEMERIS_TYPE":0,"CLASSIFICATION_TYPE":"U","NORAD_CAT_ID":56539,"ELEMENT_SET_NO":999,"REV_AT_EPOCH":15644,"BSTAR":1.946475e-5,"MEAN_MOTION_DOT":5.9e-7,"MEAN_MOTION_DDOT":0},{"OBJECT_NAME":"FENGYUN 1C DEB","OBJECT_ID":"1999-025AQU","EPOCH":"2026-03-09T01:25:03.420768","MEAN_MOTION":14.74992504,"ECCENTRICITY":0.01405011,"INCLINATION":99.0317,"RA_OF_ASC_NODE":276.8472,"ARG_OF_PERICENTER":211.6472,"MEAN_ANOMALY":309.6318,"EPHEMERIS_TYPE":0,"CLASSIFICATION_TYPE":"U","NORAD_CAT_ID":30686,"ELEMENT_SET_NO":999,"REV_AT_EPOCH":874,"BSTAR":0.0010181927,"MEAN_MOTION_DOT":7.973e-5,"MEAN_MOTION_DDOT":0}]
